{"type": "FeatureCollection", "features": [ {"type": "Feature", "properties": {"norad_id": 37094, "name": "COSMOS 2251 DEB", "group": "cosmos-2251-debris", "lat": -56.73864716545613, "lon": 70.8261892296526, "alt_km": 800.9862576353844, "timestamp": "2025-12-26T03:50:12.491724+00:00", "meta": {"OBJECT_NAME": "COSMOS 2251 DEB", "OBJECT_ID": "1993-036BFQ", "EPOCH": "2025-12-10T15:45:11.030688", "MEAN_MOTION": 14.37808892, "ECCENTRICITY": 0.0084108, "INCLINATION": 74.1091, "RA_OF_ASC_NODE": 124.9809, "ARG_OF_PERICENTER": 91.4784, "MEAN_ANOMALY": 269.6007, "EPHEMERIS_TYPE": 0, "CLASSIFICATION_TYPE": "U", "NORAD_CAT_ID": 37094, "ELEMENT_SET_NO": 999, "REV_AT_EPOCH": 84476, "BSTAR": 0.0015212, "MEAN_MOTION_DOT": 4.753e-05, "MEAN_MOTION_DDOT": 0}, "tle": {"line1": "1 37094U 93036BFQ 25344.65637767  .00004753  00000+0  15212-2 0  9990", "line2": "2 37094  74.1091 124.9809 0084108  91.4784 269.6007 14.37808892844763"}}, "geometry": {"type": "Point", "coordinates": [70.8261892296526, -56.73864716545613]}}, {"type": "Feature", "properties": {"norad_id": 37095, "name": "COSMOS 2251 DEB", "group": "cosmos-2251-debris", "lat": 6.760154001521476, "lon": 168.24159733300633, "alt_km": 998.5747516896436, "timestamp": "2025-12-26T03:50:12.491734+00:00", "meta": {"OBJECT_NAME": "COSMOS 2251 DEB", "OBJECT_ID": "1993-036BFR", "EPOCH": "2025-12-20T05:48:30.438144", "MEAN_MOTION": 14.03423265, "ECCENTRICITY": 0.01937256, "INCLINATION": 73.8447, "RA_OF_ASC_NODE": 176.6944, "ARG_OF_PERICENTER": 233.1449, "MEAN_ANOMALY": 125.1788, "EPHEMERIS_TYPE": 0, "CLASSIFICATION_TYPE": "U", "NORAD_CAT_ID": 37095, "ELEMENT_SET_NO": 999, "REV_AT_EPOCH": 62741, "BSTAR": 0.00075143733, "MEAN_MOTION_DOT": 1.362e-05, "MEAN_MOTION_DDOT": 0}, "tle": {"line1": "1 37095U 93036BFR 25354.24201896  .00001362  00000+0  75144-3 0  9991", "line2": "2 37095  73.8447 176.6944 0193725 233.1449 125.1788 14.03423265627411"}}, "geometry": {"type": "Point", "coordinates": [168.24159733300633, 6.760154001521476]}}, {"type": "Feature", "properties": {"norad_id": 37108, "name": "COSMOS 2251 DEB", "group": "cosmos-2251-debris", "lat": 70.32411431198348, "lon": 108.8605616977634, "alt_km": 705.6169066607608, "timestamp": "2025-12-26T03:50:12.491745+00:00", "meta": {"OBJECT_NAME": "COSMOS 2251 DEB", "OBJECT_ID": "1993-036BGE", "EPOCH": "2025-12-25T12:28:59.347776", "MEAN_MOTION": 14.4139202, "ECCENTRICITY": 0.0090099, "INCLINATION": 74.0439, "RA_OF_ASC_NODE": 56.9035, "ARG_OF_PERICENTER": 130.3384, "MEAN_ANOMALY": 230.5686, "EPHEMERIS_TYPE": 0, "CLASSIFICATION_TYPE": "U", "NORAD_CAT_ID": 37108, "ELEMENT_SET_NO": 999, "REV_AT_EPOCH": 85691, "BSTAR": 0.00098782, "MEAN_MOTION_DOT": 3.334e-05, "MEAN_MOTION_DDOT": 0}, "tle": {"line1": "1 37108U 93036BGE 25359.52013134  .00003334  00000+0  98782-3 0  9992", "line2": "2 37108  74.0439  56.9035 0090099 130.3384 230.5686 14.41392020856910"}}, "geometry": {"type": "Point", "coordinates": [108.8605616977634, 70.32411431198348]}}, {"type": "Feature", "properties": {"norad_id": 37126, "name": "COSMOS 2251 DEB", "group": "cosmos-2251-debris", "lat": 63.90709316151369, "lon": 4.240828729512299, "alt_km": 704.1404324099949, "timestamp": "2025-12-26T03:50:12.491755+00:00", "meta": {"OBJECT_NAME": "COSMOS 2251 DEB", "OBJECT_ID": "1993-036BGY", "EPOCH": "2025-12-25T14:28:40.048320", "MEAN_MOTION": 14.73111648, "ECCENTRICITY": 0.0122556, "INCLINATION": 73.9501, "RA_OF_ASC_NODE": 329.3283, "ARG_OF_PERICENTER": 204.6714, "MEAN_ANOMALY": 154.8568, "EPHEMERIS_TYPE": 0, "CLASSIFICATION_TYPE": "U", "NORAD_CAT_ID": 37126, "ELEMENT_SET_NO": 999, "REV_AT_EPOCH": 8288, "BSTAR": 0.00020497, "MEAN_MOTION_DOT": 1.448e-05, "MEAN_MOTION_DDOT": 0}, "tle": {"line1": "1 37126U 93036BGY 25359.60324130  .00001448  00000+0  20497-3 0  9994", "line2": "2 37126  73.9501 329.3283 0122556 204.6714 154.8568 14.73111648 82880"}}, "geometry": {"type": "Point", "coordinates": [4.240828729512299, 63.90709316151369]}}, {"type": "Feature", "properties": {"norad_id": 37132, "name": "COSMOS 2251 DEB", "group": "cosmos-2251-debris", "lat": -3.923475747472102, "lon": -153.48213043262012, "alt_km": 610.6706877921251, "timestamp": "2025-12-26T03:50:12.491766+00:00", "meta": {"OBJECT_NAME": "COSMOS 2251 DEB", "OBJECT_ID": "1993-036BHE", "EPOCH": "2025-12-21T08:30:46.700352", "MEAN_MOTION": 14.77932958, "ECCENTRICITY": 0.00403307, "INCLINATION": 74.0023, "RA_OF_ASC_NODE": 217.0951, "ARG_OF_PERICENTER": 11.0309, "MEAN_ANOMALY": 349.1741, "EPHEMERIS_TYPE": 0, "CLASSIFICATION_TYPE": "U", "NORAD_CAT_ID": 37132, "ELEMENT_SET_NO": 999, "REV_AT_EPOCH": 62543, "BSTAR": 0.0006420237, "MEAN_MOTION_DOT": 4.657e-05, "MEAN_MOTION_DDOT": 0}, "tle": {"line1": "1 37132U 93036BHE 25355.35470718  .00004657  00000+0  64202-3 0  9990", "line2": "2 37132  74.0023 217.0951 0040330  11.0309 349.1741 14.77932958625437"}}, "geometry": {"type": "Point", "coordinates": [-153.48213043262012, -3.923475747472102]}}, {"type": "Feature", "properties": {"norad_id": 37270, "name": "COSMOS 2251 DEB", "group": "cosmos-2251-debris", "lat": -30.851505078962937, "lon": 143.9069158194607, "alt_km": 1137.3613106202483, "timestamp": "2025-12-26T03:50:12.491777+00:00", "meta": {"OBJECT_NAME": "COSMOS 2251 DEB", "OBJECT_ID": "1993-036BHJ", "EPOCH": "2025-12-12T22:45:06.098400", "MEAN_MOTION": 13.59808663, "ECCENTRICITY": 0.03985351, "INCLINATION": 73.9378, "RA_OF_ASC_NODE": 335.5481, "ARG_OF_PERICENTER": 347.3958, "MEAN_ANOMALY": 11.7404, "EPHEMERIS_TYPE": 0, "CLASSIFICATION_TYPE": "U", "NORAD_CAT_ID": 37270, "ELEMENT_SET_NO": 999, "REV_AT_EPOCH": 77072, "BSTAR": 0.0064936549, "MEAN_MOTION_DOT": 8.148e-05, "MEAN_MOTION_DDOT": 0}, "tle": {"line1": "1 37270U 93036BHJ 25346.94798725  .00008148  00000+0  64937-2 0  9992", "line2": "2 37270  73.9378 335.5481 0398535 347.3958  11.7404 13.59808663770728"}}, "geometry": {"type": "Point", "coordinates": [143.9069158194607, -30.851505078962937]}}, {"type": "Feature", "properties": {"norad_id": 37278, "name": "COSMOS 2251 DEB", "group": "cosmos-2251-debris", "lat": 21.89859494995749, "lon": -28.20155662465327, "alt_km": 951.6055852110148, "timestamp": "2025-12-26T03:50:12.491787+00:00", "meta": {"OBJECT_NAME": "COSMOS 2251 DEB", "OBJECT_ID": "1993-036BHS", "EPOCH": "2025-12-22T06:43:10.079328", "MEAN_MOTION": 14.15136552, "ECCENTRICITY": 0.02988964, "INCLINATION": 73.7862, "RA_OF_ASC_NODE": 332.08, "ARG_OF_PERICENTER": 152.8639, "MEAN_ANOMALY": 274.4968, "EPHEMERIS_TYPE": 0, "CLASSIFICATION_TYPE": "U", "NORAD_CAT_ID": 37278, "ELEMENT_SET_NO": 999, "REV_AT_EPOCH": 63964, "BSTAR": 0.0007998951, "MEAN_MOTION_DOT": 2.366e-05, "MEAN_MOTION_DDOT": 0}, "tle": {"line1": "1 37278U 93036BHS 25356.27997777  .00002366  00000+0  79990-3 0  9997", "line2": "2 37278  73.7862 332.0800 0298896 152.8639 274.4968 14.15136552639645"}}, "geometry": {"type": "Point", "coordinates": [-28.20155662465327, 21.89859494995749]}}, {"type": "Feature", "properties": {"norad_id": 37280, "name": "COSMOS 2251 DEB", "group": "cosmos-2251-debris", "lat": 1.5296938798344875, "lon": -147.36043150805895, "alt_km": 741.4668454264875, "timestamp": "2025-12-26T03:50:12.491797+00:00", "meta": {"OBJECT_NAME": "COSMOS 2251 DEB", "OBJECT_ID": "1993-036BHU", "EPOCH": "2025-12-24T08:42:55.097280", "MEAN_MOTION": 14.19374869, "ECCENTRICITY": 0.01298569, "INCLINATION": 74.0307, "RA_OF_ASC_NODE": 36.2886, "ARG_OF_PERICENTER": 162.4519, "MEAN_ANOMALY": 198.1176, "EPHEMERIS_TYPE": 0, "CLASSIFICATION_TYPE": "U", "NORAD_CAT_ID": 37280, "ELEMENT_SET_NO": 999, "REV_AT_EPOCH": 57488, "BSTAR": 0.0012209104, "MEAN_MOTION_DOT": 2.768e-05, "MEAN_MOTION_DDOT": 0}, "tle": {"line1": "1 37280U 93036BHU 25358.36313770  .00002768  00000+0  12209-2 0  9992", "line2": "2 37280  74.0307  36.2886 0129856 162.4519 198.1176 14.19374869574882"}}, "geometry": {"type": "Point", "coordinates": [-147.36043150805895, 1.5296938798344875]}}, {"type": "Feature", "properties": {"norad_id": 37284, "name": "COSMOS 2251 DEB", "group": "cosmos-2251-debris", "lat": -35.4021116848281, "lon": -35.269875340419446, "alt_km": 804.771547349822, "timestamp": "2025-12-26T03:50:12.491807+00:00", "meta": {"OBJECT_NAME": "COSMOS 2251 DEB", "OBJECT_ID": "1993-036BHY", "EPOCH": "2025-12-10T18:04:20.469216", "MEAN_MOTION": 14.12686618, "ECCENTRICITY": 0.01605026, "INCLINATION": 74.0123, "RA_OF_ASC_NODE": 160.2425, "ARG_OF_PERICENTER": 312.4867, "MEAN_ANOMALY": 59.8736, "EPHEMERIS_TYPE": 0, "CLASSIFICATION_TYPE": "U", "NORAD_CAT_ID": 37284, "ELEMENT_SET_NO": 999, "REV_AT_EPOCH": 59147, "BSTAR": 0.001592138, "MEAN_MOTION_DOT": 3.31e-05, "MEAN_MOTION_DDOT": 0}, "tle": {"line1": "1 37284U 93036BHY 25344.75301469  .00003310  00000+0  15921-2 0  9994", "line2": "2 37284  74.0123 160.2425 0160502 312.4867  59.8736 14.12686618591475"}}, "geometry": {"type": "Point", "coordinates": [-35.269875340419446, -35.4021116848281]}}, {"type": "Feature", "properties": {"norad_id": 37292, "name": "COSMOS 2251 DEB", "group": "cosmos-2251-debris", "lat": -61.80486829863941, "lon": -121.40451656098125, "alt_km": 1004.1791585815317, "timestamp": "2025-12-26T03:50:12.491818+00:00", "meta": {"OBJECT_NAME": "COSMOS 2251 DEB", "OBJECT_ID": "1993-036BJG", "EPOCH": "2025-12-02T14:04:30.366912", "MEAN_MOTION": 14.03226454, "ECCENTRICITY": 0.02102512, "INCLINATION": 74.129, "RA_OF_ASC_NODE": 67.3453, "ARG_OF_PERICENTER": 73.1105, "MEAN_ANOMALY": 289.2966, "EPHEMERIS_TYPE": 0, "CLASSIFICATION_TYPE": "U", "NORAD_CAT_ID": 37292, "ELEMENT_SET_NO": 999, "REV_AT_EPOCH": 59706, "BSTAR": 0.0022453288, "MEAN_MOTION_DOT": 4.236e-05, "MEAN_MOTION_DDOT": 0}, "tle": {"line1": "1 37292U 93036BJG 25336.58646258  .00004236  00000+0  22453-2 0  9999", "line2": "2 37292  74.1290  67.3453 0210251  73.1105 289.2966 14.03226454597064"}}, "geometry": {"type": "Point", "coordinates": [-121.40451656098125, -61.80486829863941]}}]}